{"type":"FeatureCollection","name":"trafford_cctv_cameras","crs":{"type":"name","properties":{"name":"urn:ogc:def:crs:OGC:1.3:CRS84"}},"features":[{"type":"Feature","properties":{"camera_id":1001.0,"location":"Trafford Wharf Road","area_name":"Gorse Hill & Cornbrook","area_code":"E05015247"},"geometry":{"type":"Point","coordinates":[-2.284777,53.464515]}},{"type":"Feature","properties":{"camera_id":1002.0,"location":"Trafford Wharf Road/Wharfside tram stop","area_name":"Gorse Hill & Cornbrook","area_code":"E05015247"},"geometry":{"type":"Point","coordinates":[-2.289056,53.466406]}},{"type":"Feature","properties":{"camera_id":1003.0,"location":"Wharfside Way/Sir Matt Busby Way","area_name":"Gorse Hill & Cornbrook","area_code":"E05015247"},"geometry":{"type":"Point","coordinates":[-2.289589,53.464723]}},{"type":"Feature","properties":{"camera_id":1004.0,"location":"Imperial War Musem tram stop","area_name":"Gorse Hill & Cornbrook","area_code":"E05015247"},"geometry":{"type":"Point","coordinates":[-2.298108,53.468727]}},{"type":"Feature","properties":{"camera_id":1005.0,"location":"Chester Road (White City)","area_name":"Gorse Hill & Cornbrook","area_code":"E05015247"},"geometry":{"type":"Point","coordinates":[-2.285219,53.46222]}},{"type":"Feature","properties":{"camera_id":1006.0,"location":"Chester Road/Sir Matt Busby Way","area_name":"Gorse Hill & Cornbrook","area_code":"E05015247"},"geometry":{"type":"Point","coordinates":[-2.288022,53.461151]}},{"type":"Feature","properties":{"camera_id":1007.0,"location":"Warwick Road (Town Hall)","area_name":"Gorse Hill & Cornbrook","area_code":"E05015247"},"geometry":{"type":"Point","coordinates":[-2.287323,53.459559]}},{"type":"Feature","properties":{"camera_id":1008.0,"location":"Chester Road (Tesco)","area_name":"Gorse Hill & Cornbrook","area_code":"E05015247"},"geometry":{"type":"Point","coordinates":[-2.291368,53.459623]}},{"type":"Feature","properties":{"camera_id":1009.0,"location":"The Quadrant, Old Trafford","area_name":"Longford","area_code":"E05015250"},"geometry":{"type":"Point","coordinates":[-2.286269,53.452648]}},{"type":"Feature","properties":{"camera_id":1010.0,"location":"Warwick Road/Talbot Road","area_name":"Gorse Hill & Cornbrook","area_code":"E05015247"},"geometry":{"type":"Point","coordinates":[-2.286228,53.458356]}},{"type":"Feature","properties":{"camera_id":1011.0,"location":"Talbot Road","area_name":"Gorse Hill & Cornbrook","area_code":"E05015247"},"geometry":{"type":"Point","coordinates":[-2.294119,53.455013]}},{"type":"Feature","properties":{"camera_id":1012.0,"location":"Chester Road/Davyhulme Road East","area_name":"Longford","area_code":"E05015250"},"geometry":{"type":"Point","coordinates":[-2.301563,53.450755]}},{"type":"Feature","properties":{"camera_id":1013.0,"location":"Norris Road","area_name":"Sale Moor","area_code":"E05015255"},"geometry":{"type":"Point","coordinates":[-2.299929,53.414801]}},{"type":"Feature","properties":{"camera_id":1014.0,"location":"Park Road/Davyhulme Road","area_name":"Lostock & Barton","area_code":"E05015251"},"geometry":{"type":"Point","coordinates":[-2.316642,53.452986]}},{"type":"Feature","properties":{"camera_id":1015.0,"location":"Brooklands tram stop","area_name":"Brooklands","area_code":"E05015243"},"geometry":{"type":"Point","coordinates":[-2.325582,53.417326]}},{"type":"Feature","properties":{"camera_id":1016.0,"location":"Goose Green","area_name":"Altrincham","area_code":"E05015239"},"geometry":{"type":"Point","coordinates":[-2.350552,53.385287]}},{"type":"Feature","properties":{"camera_id":1017.0,"location":"Goose Green Static","area_name":"Altrincham","area_code":"E05015239"},"geometry":{"type":"Point","coordinates":[-2.35057,53.385267]}},{"type":"Feature","properties":{"camera_id":1018.0,"location":"Sevenways Roundabout (Church Side)","area_name":"Stretford & Humphrey Park","area_code":"E05015256"},"geometry":{"type":"Point","coordinates":[-2.31832,53.450619]}},{"type":"Feature","properties":{"camera_id":1019.0,"location":"Sevenways Roundabout (Petrol Station Side)","area_name":"Lostock & Barton","area_code":"E05015251"},"geometry":{"type":"Point","coordinates":[-2.319015,53.450699]}},{"type":"Feature","properties":{"camera_id":1020.0,"location":"Barton Road","area_name":"Lostock & Barton","area_code":"E05015251"},"geometry":{"type":"Point","coordinates":[-2.325232,53.454289]}},{"type":"Feature","properties":{"camera_id":1022.0,"location":"Trafford House (Rooftop MUFC Side)","area_name":"Gorse Hill & Cornbrook","area_code":"E05015247"},"geometry":{"type":"Point","coordinates":[-2.289829,53.460686]}},{"type":"Feature","properties":{"camera_id":1023.0,"location":"Trafford House (Rooftop TTH Side)","area_name":"Gorse Hill & Cornbrook","area_code":"E05015247"},"geometry":{"type":"Point","coordinates":[-2.290462,53.460361]}},{"type":"Feature","properties":{"camera_id":1024.0,"location":"Edge Lane","area_name":"Longford","area_code":"E05015250"},"geometry":{"type":"Point","coordinates":[-2.304892,53.445577]}},{"type":"Feature","properties":{"camera_id":1025.0,"location":"Chester Road/Kingsway (Subway)","area_name":"Stretford & Humphrey Park","area_code":"E05015256"},"geometry":{"type":"Point","coordinates":[-2.307037,53.446325]}},{"type":"Feature","properties":{"camera_id":1026.0,"location":"Chester Road/Edge Lane (Subway)","area_name":"Longford","area_code":"E05015250"},"geometry":{"type":"Point","coordinates":[-2.306366,53.446066]}},{"type":"Feature","properties":{"camera_id":1027.0,"location":"Kingsway, Stretford","area_name":"Stretford & Humphrey Park","area_code":"E05015256"},"geometry":{"type":"Point","coordinates":[-2.310026,53.446328]}},{"type":"Feature","properties":{"camera_id":1028.0,"location":"Kingsway/Barton Road, Stretford","area_name":"Stretford & Humphrey Park","area_code":"E05015256"},"geometry":{"type":"Point","coordinates":[-2.31274,53.44582]}},{"type":"Feature","properties":{"camera_id":1029.0,"location":"Seymour Grove/Elsinore Road","area_name":"Old Trafford","area_code":"E05015253"},"geometry":{"type":"Point","coordinates":[-2.276514,53.461827]}},{"type":"Feature","properties":{"camera_id":1030.0,"location":"Seymour Grove","area_name":"Old Trafford","area_code":"E05015253"},"geometry":{"type":"Point","coordinates":[-2.276369,53.461582]}},{"type":"Feature","properties":{"camera_id":1031.0,"location":"Northumberland Road","area_name":"Old Trafford","area_code":"E05015253"},"geometry":{"type":"Point","coordinates":[-2.268775,53.462879]}},{"type":"Feature","properties":{"camera_id":1032.0,"location":"Henrietta Street","area_name":"Old Trafford","area_code":"E05015253"},"geometry":{"type":"Point","coordinates":[-2.266267,53.463376]}},{"type":"Feature","properties":{"camera_id":1033.0,"location":"Bridgewater Way/Cornbrook tram stop","area_name":"Gorse Hill & Cornbrook","area_code":"E05015247"},"geometry":{"type":"Point","coordinates":[-2.266345,53.469516]}},{"type":"Feature","properties":{"camera_id":1034.0,"location":"City Road Old Trafford","area_name":"Gorse Hill & Cornbrook","area_code":"E05015247"},"geometry":{"type":"Point","coordinates":[-2.266644,53.465835]}},{"type":"Feature","properties":{"camera_id":1035.0,"location":"Clifton Street","area_name":"Old Trafford","area_code":"E05015253"},"geometry":{"type":"Point","coordinates":[-2.262504,53.462363]}},{"type":"Feature","properties":{"camera_id":1036.0,"location":"Shrewsbury Street/Ayres Road","area_name":"Old Trafford","area_code":"E05015253"},"geometry":{"type":"Point","coordinates":[-2.260186,53.459859]}},{"type":"Feature","properties":{"camera_id":1037.0,"location":"Albion Street/Prestege Street","area_name":"Old Trafford","area_code":"E05015253"},"geometry":{"type":"Point","coordinates":[-2.26277,53.459408]}},{"type":"Feature","properties":{"camera_id":1038.0,"location":"Powell Street/Ayres Road","area_name":"Old Trafford","area_code":"E05015253"},"geometry":{"type":"Point","coordinates":[-2.265667,53.458895]}},{"type":"Feature","properties":{"camera_id":1039.0,"location":"St John's Road/Ayres Road","area_name":"Old Trafford","area_code":"E05015253"},"geometry":{"type":"Point","coordinates":[-2.268526,53.458392]}},{"type":"Feature","properties":{"camera_id":1040.0,"location":"Ayres Road/Northumberland Road","area_name":"Old Trafford","area_code":"E05015253"},"geometry":{"type":"Point","coordinates":[-2.272214,53.457764]}},{"type":"Feature","properties":{"camera_id":1041.0,"location":"Ayres Road tram stop Depot","area_name":"Longford","area_code":"E05015250"},"geometry":{"type":"Point","coordinates":[-2.280892,53.456477]}},{"type":"Feature","properties":{"camera_id":1042.0,"location":"Stretford Road/East Union Street","area_name":"Gorse Hill & Cornbrook","area_code":"E05015247"},"geometry":{"type":"Point","coordinates":[-2.265533,53.464292]}},{"type":"Feature","properties":{"camera_id":1044.0,"location":"Stretford House (Rooftop South)","area_name":"Stretford & Humphrey Park","area_code":"E05015256"},"geometry":{"type":"Point","coordinates":[-2.312111,53.442722]}},{"type":"Feature","properties":{"camera_id":1045.0,"location":"Stretford House (Rooftop North)","area_name":"Stretford & Humphrey Park","area_code":"E05015256"},"geometry":{"type":"Point","coordinates":[-2.312395,53.443001]}},{"type":"Feature","properties":{"camera_id":1046.0,"location":"Rye Bank Road","area_name":"Longford","area_code":"E05015250"},"geometry":{"type":"Point","coordinates":[-2.277925,53.451688]}},{"type":"Feature","properties":{"camera_id":1050.0,"location":"Ayres Road/Darnley Street","area_name":"Old Trafford","area_code":"E05015253"},"geometry":{"type":"Point","coordinates":[-2.264306,53.459222]}},{"type":"Feature","properties":{"camera_id":1060.0,"location":"Plymouth Road/Bodmin Road (Health Centre)","area_name":"Bucklow-St Martins","area_code":"E05015244"},"geometry":{"type":"Point","coordinates":[-2.352147,53.427291]}},{"type":"Feature","properties":{"camera_id":1061.0,"location":"Magnolia Court (Rooftop North)","area_name":"Bucklow-St Martins","area_code":"E05015244"},"geometry":{"type":"Point","coordinates":[-2.356303,53.428986]}},{"type":"Feature","properties":{"camera_id":1062.0,"location":"Magnolia Court (Rooftop South)","area_name":"Bucklow-St Martins","area_code":"E05015244"},"geometry":{"type":"Point","coordinates":[-2.355984,53.428826]}},{"type":"Feature","properties":{"camera_id":1063.0,"location":"Epping Drive","area_name":"Bucklow-St Martins","area_code":"E05015244"},"geometry":{"type":"Point","coordinates":[-2.357242,53.426419]}},{"type":"Feature","properties":{"camera_id":1064.0,"location":"Firs Way/Goodwood Avenue","area_name":"Manor","area_code":"E05015252"},"geometry":{"type":"Point","coordinates":[-2.355949,53.421475]}},{"type":"Feature","properties":{"camera_id":1065.0,"location":"Newbury Avenue","area_name":"Manor","area_code":"E05015252"},"geometry":{"type":"Point","coordinates":[-2.356537,53.418649]}},{"type":"Feature","properties":{"camera_id":1066.0,"location":"Thirsk Avenue","area_name":"Manor","area_code":"E05015252"},"geometry":{"type":"Point","coordinates":[-2.358473,53.418574]}},{"type":"Feature","properties":{"camera_id":1068.0,"location":"Chepstow Avenue","area_name":"Manor","area_code":"E05015252"},"geometry":{"type":"Point","coordinates":[-2.358317,53.417099]}},{"type":"Feature","properties":{"camera_id":1070.0,"location":"Hurst Avenue","area_name":"Manor","area_code":"E05015252"},"geometry":{"type":"Point","coordinates":[-2.356562,53.414996]}},{"type":"Feature","properties":{"camera_id":1071.0,"location":"Ascot Avenue","area_name":"Manor","area_code":"E05015252"},"geometry":{"type":"Point","coordinates":[-2.354571,53.417121]}},{"type":"Feature","properties":{"camera_id":1072.0,"location":"Manor Avenue/Coppice Avenue","area_name":"Manor","area_code":"E05015252"},"geometry":{"type":"Point","coordinates":[-2.352037,53.414247]}},{"type":"Feature","properties":{"camera_id":1074.0,"location":"Stockport Road Timperley Village","area_name":"Timperley Central","area_code":"E05015257"},"geometry":{"type":"Point","coordinates":[-2.318367,53.397353]}},{"type":"Feature","properties":{"camera_id":1075.0,"location":"Manchester Road/Sinderland Road","area_name":"Broadheath","area_code":"E05015242"},"geometry":{"type":"Point","coordinates":[-2.352408,53.400977]}},{"type":"Feature","properties":{"camera_id":1077.0,"location":"Firs Way/Epsom Avenue","area_name":"Manor","area_code":"E05015252"},"geometry":{"type":"Point","coordinates":[-2.36172,53.414343]}},{"type":"Feature","properties":{"camera_id":1078.0,"location":"Shaftesbury Avenue","area_name":"Timperley Central","area_code":"E05015257"},"geometry":{"type":"Point","coordinates":[-2.322976,53.39228]}},{"type":"Feature","properties":{"camera_id":1079.0,"location":"Briarfield Road","area_name":"Timperley Central","area_code":"E05015257"},"geometry":{"type":"Point","coordinates":[-2.31191,53.392836]}},{"type":"Feature","properties":{"camera_id":1080.0,"location":"George Street","area_name":"Altrincham","area_code":"E05015239"},"geometry":{"type":"Point","coordinates":[-2.349734,53.387686]}},{"type":"Feature","properties":{"camera_id":1081.0,"location":"Regent Road/George Street","area_name":"Altrincham","area_code":"E05015239"},"geometry":{"type":"Point","coordinates":[-2.35191,53.38566]}},{"type":"Feature","properties":{"camera_id":1082.0,"location":"The Causeway, Altrincham","area_name":"Altrincham","area_code":"E05015239"},"geometry":{"type":"Point","coordinates":[-2.349835,53.386835]}},{"type":"Feature","properties":{"camera_id":1083.0,"location":"Travelodge (Rooftop), Altrincham","area_name":"Altrincham","area_code":"E05015239"},"geometry":{"type":"Point","coordinates":[-2.35094,53.385818]}},{"type":"Feature","properties":{"camera_id":1084.0,"location":"Regent Road/Stamford New Road","area_name":"Altrincham","area_code":"E05015239"},"geometry":{"type":"Point","coordinates":[-2.351305,53.385521]}},{"type":"Feature","properties":{"camera_id":1085.0,"location":"Woodlands Road/Church Street (Cresta Court)","area_name":"Altrincham","area_code":"E05015239"},"geometry":{"type":"Point","coordinates":[-2.35002,53.390565]}},{"type":"Feature","properties":{"camera_id":1086.0,"location":"Stamford New Road","area_name":"Altrincham","area_code":"E05015239"},"geometry":{"type":"Point","coordinates":[-2.349004,53.386822]}},{"type":"Feature","properties":{"camera_id":1087.0,"location":"Green Lane","area_name":"Ashton upon Mersey","area_code":"E05015240"},"geometry":{"type":"Point","coordinates":[-2.341979,53.429465]}},{"type":"Feature","properties":{"camera_id":1088.0,"location":"Stamford New Road Taxi Rank","area_name":"Altrincham","area_code":"E05015239"},"geometry":{"type":"Point","coordinates":[-2.348531,53.387347]}},{"type":"Feature","properties":{"camera_id":1089.0,"location":"Northenden Road","area_name":"Sale Moor","area_code":"E05015255"},"geometry":{"type":"Point","coordinates":[-2.303596,53.419821]}},{"type":"Feature","properties":{"camera_id":1090.0,"location":"Manchester Road","area_name":"Altrincham","area_code":"E05015239"},"geometry":{"type":"Point","coordinates":[-2.352036,53.397246]}},{"type":"Feature","properties":{"camera_id":1091.0,"location":"Sale Station/Taxi Rank","area_name":"Sale Central","area_code":"E05015254"},"geometry":{"type":"Point","coordinates":[-2.318057,53.424316]}},{"type":"Feature","properties":{"camera_id":1092.0,"location":"Sale Town Hall","area_name":"Sale Central","area_code":"E05015254"},"geometry":{"type":"Point","coordinates":[-2.320279,53.424828]}},{"type":"Feature","properties":{"camera_id":1093.0,"location":"School Road/Claremont Road","area_name":"Sale Central","area_code":"E05015254"},"geometry":{"type":"Point","coordinates":[-2.321467,53.424992]}},{"type":"Feature","properties":{"camera_id":1094.0,"location":"School Road/Hereford Street","area_name":"Sale Central","area_code":"E05015254"},"geometry":{"type":"Point","coordinates":[-2.322866,53.425237]}},{"type":"Feature","properties":{"camera_id":1095.0,"location":"School Road/Hayfield Street (Costa)","area_name":"Sale Central","area_code":"E05015254"},"geometry":{"type":"Point","coordinates":[-2.324203,53.425492]}},{"type":"Feature","properties":{"camera_id":1096.0,"location":"Hereford Street","area_name":"Sale Central","area_code":"E05015254"},"geometry":{"type":"Point","coordinates":[-2.32311,53.425014]}},{"type":"Feature","properties":{"camera_id":1097.0,"location":"School Road/Hayfield Street","area_name":"Sale Central","area_code":"E05015254"},"geometry":{"type":"Point","coordinates":[-2.324461,53.425556]}},{"type":"Feature","properties":{"camera_id":1098.0,"location":"Dane Road tram stop","area_name":"Sale Central","area_code":"E05015254"},"geometry":{"type":"Point","coordinates":[-2.311432,53.43044]}},{"type":"Feature","properties":{"camera_id":1103.0,"location":"Wharfside Way/Sir Matt Busby Way/Hotel Football","area_name":"Gorse Hill & Cornbrook","area_code":"E05015247"},"geometry":{"type":"Point","coordinates":[-2.289544,53.46473]}},{"type":"Feature","properties":{"camera_id":1148.0,"location":"Trafford Way","area_name":"Lostock & Barton","area_code":"E05015251"},"geometry":{"type":"Point","coordinates":[-2.363316,53.470163]}},{"type":"Feature","properties":{"camera_id":1149.0,"location":"Peel Circle/Trafford Centre","area_name":"Lostock & Barton","area_code":"E05015251"},"geometry":{"type":"Point","coordinates":[-2.341002,53.465097]}},{"type":"Feature","properties":{"camera_id":1150.0,"location":"Barton Dock Road/Trafford Centre tram stop","area_name":"Lostock & Barton","area_code":"E05015251"},"geometry":{"type":"Point","coordinates":[-2.347539,53.467971]}},{"type":"Feature","properties":{"camera_id":1151.0,"location":"Europa Circle","area_name":"Gorse Hill & Cornbrook","area_code":"E05015247"},"geometry":{"type":"Point","coordinates":[-2.306039,53.462625]}},{"type":"Feature","properties":{"camera_id":1152.0,"location":"Barton Road/Davyhulme Circle (The Nags Head)","area_name":"Lostock & Barton","area_code":"E05015251"},"geometry":{"type":"Point","coordinates":[-2.357339,53.458044]}},{"type":"Feature","properties":{"camera_id":1153.0,"location":"Flixton Road/Roseneath Road","area_name":"Urmston","area_code":"E05015259"},"geometry":{"type":"Point","coordinates":[-2.357465,53.448352]}},{"type":"Feature","properties":{"camera_id":1154.0,"location":"Flixton Road (Railway Station)","area_name":"Urmston","area_code":"E05015259"},"geometry":{"type":"Point","coordinates":[-2.353634,53.448477]}},{"type":"Feature","properties":{"camera_id":1155.0,"location":"Golden Hill Carpark","area_name":"Urmston","area_code":"E05015259"},"geometry":{"type":"Point","coordinates":[-2.356857,53.450963]}},{"type":"Feature","properties":{"camera_id":1156.0,"location":"Trafford Retail Park","area_name":"Davyhulme","area_code":"E05015245"},"geometry":{"type":"Point","coordinates":[-2.358109,53.462237]}},{"type":"Feature","properties":{"camera_id":1158.0,"location":"Shaw View","area_name":"Flixton","area_code":"E05015246"},"geometry":{"type":"Point","coordinates":[-2.37221,53.447685]}},{"type":"Feature","properties":{"camera_id":1159.0,"location":"Pennybridge Lane","area_name":"Flixton","area_code":"E05015246"},"geometry":{"type":"Point","coordinates":[-2.372848,53.44766]}},{"type":"Feature","properties":{"camera_id":1160.0,"location":"Crofts Bank Road","area_name":"Urmston","area_code":"E05015259"},"geometry":{"type":"Point","coordinates":[-2.353119,53.44917]}},{"type":"Feature","properties":{"camera_id":1161.0,"location":"Station Road/Higher Road","area_name":"Urmston","area_code":"E05015259"},"geometry":{"type":"Point","coordinates":[-2.352996,53.448046]}},{"type":"Feature","properties":{"camera_id":1164.0,"location":"Heyeswater Road","area_name":"Davyhulme","area_code":"E05015245"},"geometry":{"type":"Point","coordinates":[-2.358815,53.456716]}},{"type":"Feature","properties":{"camera_id":1165.0,"location":"Woodsend Circle","area_name":"Davyhulme","area_code":"E05015245"},"geometry":{"type":"Point","coordinates":[-2.392811,53.452665]}},{"type":"Feature","properties":{"camera_id":1170.0,"location":"Bucklow Avenue","area_name":"Bucklow-St Martins","area_code":"E05015244"},"geometry":{"type":"Point","coordinates":[-2.420971,53.420234]}},{"type":"Feature","properties":{"camera_id":1171.0,"location":"Moss Lane, Partington","area_name":"Bucklow-St Martins","area_code":"E05015244"},"geometry":{"type":"Point","coordinates":[-2.420165,53.414908]}},{"type":"Feature","properties":{"camera_id":1172.0,"location":"Cross Lane West/Chapel Lane","area_name":"Bucklow-St Martins","area_code":"E05015244"},"geometry":{"type":"Point","coordinates":[-2.426352,53.41443]}},{"type":"Feature","properties":{"camera_id":1173.0,"location":"Manchester Road/Redbrook Road","area_name":"Bucklow-St Martins","area_code":"E05015244"},"geometry":{"type":"Point","coordinates":[-2.430853,53.414459]}},{"type":"Feature","properties":{"camera_id":1174.0,"location":"Wood Lane/Rose Walk","area_name":"Bucklow-St Martins","area_code":"E05015244"},"geometry":{"type":"Point","coordinates":[-2.432232,53.41522]}},{"type":"Feature","properties":{"camera_id":1175.0,"location":"Tulip Road","area_name":"Bucklow-St Martins","area_code":"E05015244"},"geometry":{"type":"Point","coordinates":[-2.433712,53.412226]}},{"type":"Feature","properties":{"camera_id":1176.0,"location":"Laurel Walk","area_name":"Bucklow-St Martins","area_code":"E05015244"},"geometry":{"type":"Point","coordinates":[-2.435616,53.412934]}},{"type":"Feature","properties":{"camera_id":1177.0,"location":"Oak Road (Bus Stop)","area_name":"Bucklow-St Martins","area_code":"E05015244"},"geometry":{"type":"Point","coordinates":[-2.437791,53.41147]}},{"type":"Feature","properties":{"camera_id":1178.0,"location":"Oak Road (Park)","area_name":"Bucklow-St Martins","area_code":"E05015244"},"geometry":{"type":"Point","coordinates":[-2.439616,53.414088]}},{"type":"Feature","properties":{"camera_id":1179.0,"location":"Wood Lane/Myrtle Road","area_name":"Bucklow-St Martins","area_code":"E05015244"},"geometry":{"type":"Point","coordinates":[-2.440728,53.415398]}},{"type":"Feature","properties":{"camera_id":1180.0,"location":"Lock Lane/Birch Road","area_name":"Bucklow-St Martins","area_code":"E05015244"},"geometry":{"type":"Point","coordinates":[-2.439043,53.418434]}},{"type":"Feature","properties":{"camera_id":1181.0,"location":"Millbank House, Wood Lane","area_name":"Bucklow-St Martins","area_code":"E05015244"},"geometry":{"type":"Point","coordinates":[-2.436823,53.4165]}},{"type":"Feature","properties":{"camera_id":1182.0,"location":"Wood Lane (Shops)","area_name":"Bucklow-St Martins","area_code":"E05015244"},"geometry":{"type":"Point","coordinates":[-2.434972,53.416547]}},{"type":"Feature","properties":{"camera_id":1183.0,"location":"Wynt View Rooftop (Manchester Road)","area_name":"Bucklow-St Martins","area_code":"E05015244"},"geometry":{"type":"Point","coordinates":[-2.426074,53.420006]}},{"type":"Feature","properties":{"camera_id":1184.0,"location":"Lock Lane/Conniston Road","area_name":"Bucklow-St Martins","area_code":"E05015244"},"geometry":{"type":"Point","coordinates":[-2.431558,53.419452]}},{"type":"Feature","properties":{"camera_id":1185.0,"location":"Wynt View Rooftop (Manchester New Road)","area_name":"Bucklow-St Martins","area_code":"E05015244"},"geometry":{"type":"Point","coordinates":[-2.425892,53.419875]}},{"type":"Feature","properties":{"camera_id":1186.0,"location":"Central Road (Shops)","area_name":"Bucklow-St Martins","area_code":"E05015244"},"geometry":{"type":"Point","coordinates":[-2.426262,53.418467]}},{"type":"Feature","properties":{"camera_id":1187.0,"location":"Oak Road (Shops)","area_name":"Bucklow-St Martins","area_code":"E05015244"},"geometry":{"type":"Point","coordinates":[-2.435432,53.411727]}},{"type":"Feature","properties":{"camera_id":1188.0,"location":"Central Road (Car Park rear of Co-Op)","area_name":"Bucklow-St Martins","area_code":"E05015244"},"geometry":{"type":"Point","coordinates":[-2.425075,53.418235]}},{"type":"Feature","properties":{"camera_id":1200.0,"location":"Sale Water Park Ptz 5","area_name":"Sale Central","area_code":"E05015254"},"geometry":{"type":"Point","coordinates":[-2.300595,53.431686]}},{"type":"Feature","properties":{"camera_id":1201.0,"location":"Sale Water Park (PTZ 1)","area_name":"Sale Central","area_code":"E05015254"},"geometry":{"type":"Point","coordinates":[-2.300683,53.431668]}},{"type":"Feature","properties":{"camera_id":1202.0,"location":"Sale Water Park (PTZ 2)","area_name":"Sale Central","area_code":"E05015254"},"geometry":{"type":"Point","coordinates":[-2.299811,53.43147]}},{"type":"Feature","properties":{"camera_id":1203.0,"location":"Sale Water Park (PTZ 3)","area_name":"Sale Central","area_code":"E05015254"},"geometry":{"type":"Point","coordinates":[-2.299181,53.431016]}},{"type":"Feature","properties":{"camera_id":1204.0,"location":"Sale Water Park (PTZ 4)","area_name":"Sale Central","area_code":"E05015254"},"geometry":{"type":"Point","coordinates":[-2.29997,53.431313]}},{"type":"Feature","properties":{"camera_id":1205.0,"location":"Sale Water Park (Static 1)","area_name":"Sale Central","area_code":"E05015254"},"geometry":{"type":"Point","coordinates":[-2.3,53.431425]}},{"type":"Feature","properties":{"camera_id":1206.0,"location":"Sale Water Park (Static 2)","area_name":"Sale Central","area_code":"E05015254"},"geometry":{"type":"Point","coordinates":[-2.300072,53.431336]}},{"type":"Feature","properties":{"camera_id":1207.0,"location":"Sale Water Park (Static 3)","area_name":"Sale Central","area_code":"E05015254"},"geometry":{"type":"Point","coordinates":[-2.300123,53.431355]}},{"type":"Feature","properties":{"camera_id":1208.0,"location":"Sale Water Park (Static 4)","area_name":"Sale Central","area_code":"E05015254"},"geometry":{"type":"Point","coordinates":[-2.300268,53.431402]}},{"type":"Feature","properties":{"camera_id":1269.0,"location":"Moss Road/Fleming Drive","area_name":"Gorse Hill & Cornbrook","area_code":"E05015247"},"geometry":{"type":"Point","coordinates":[-2.310439,53.456413]}},{"type":"Feature","properties":{"camera_id":1270.0,"location":"Thirlmere Avenue","area_name":"Gorse Hill & Cornbrook","area_code":"E05015247"},"geometry":{"type":"Point","coordinates":[-2.314001,53.453685]}},{"type":"Feature","properties":{"camera_id":1271.0,"location":"Chester Road/Greatstone Road","area_name":"Gorse Hill & Cornbrook","area_code":"E05015247"},"geometry":{"type":"Point","coordinates":[-2.29456,53.458112]}},{"type":"Feature","properties":{"camera_id":1272.0,"location":"Moss Road/Derbyshire Lane","area_name":"Stretford & Humphrey Park","area_code":"E05015256"},"geometry":{"type":"Point","coordinates":[-2.310343,53.450276]}},{"type":"Feature","properties":{"camera_id":1273.0,"location":"Sale Waterside (Rooftop)","area_name":"Sale Central","area_code":"E05015254"},"geometry":{"type":"Point","coordinates":[-2.319574,53.425632]}},{"type":"Feature","properties":{"camera_id":1274.0,"location":"Broad Road, Sale","area_name":"Sale Central","area_code":"E05015254"},"geometry":{"type":"Point","coordinates":[-2.316291,53.424955]}},{"type":"Feature","properties":{"camera_id":1275.0,"location":"Sale Waterside","area_name":"Sale Central","area_code":"E05015254"},"geometry":{"type":"Point","coordinates":[-2.318861,53.424677]}},{"type":"Feature","properties":{"camera_id":1276.0,"location":"Washway Road","area_name":"Sale Central","area_code":"E05015254"},"geometry":{"type":"Point","coordinates":[-2.326824,53.424168]}},{"type":"Feature","properties":{"camera_id":1277.0,"location":"Kings Ransom, Sale","area_name":"Sale Central","area_code":"E05015254"},"geometry":{"type":"Point","coordinates":[-2.318901,53.42467]}},{"type":"Feature","properties":{"camera_id":1278.0,"location":"Upper Chorlton Road","area_name":"Old Trafford","area_code":"E05015253"},"geometry":{"type":"Point","coordinates":[-2.261344,53.457036]}},{"type":"Feature","properties":{"camera_id":1279.0,"location":"Grove Lane, Hale","area_name":"Hale","area_code":"E05015248"},"geometry":{"type":"Point","coordinates":[-2.32808,53.380931]}},{"type":"Feature","properties":{"camera_id":1280.0,"location":"Norton Street, Old Trafford","area_name":"Old Trafford","area_code":"E05015253"},"geometry":{"type":"Point","coordinates":[-2.262833,53.457699]}},{"type":"Feature","properties":{"camera_id":1281.0,"location":"Chester Road, Gorse Hill","area_name":"Gorse Hill & Cornbrook","area_code":"E05015247"},"geometry":{"type":"Point","coordinates":[-2.298618,53.454109]}},{"type":"Feature","properties":{"camera_id":1282.0,"location":"Moss Road/Station Road","area_name":"Gorse Hill & Cornbrook","area_code":"E05015247"},"geometry":{"type":"Point","coordinates":[-2.310525,53.454809]}},{"type":"Feature","properties":{"camera_id":1283.0,"location":"Moss Road/Grasmere Road","area_name":"Gorse Hill & Cornbrook","area_code":"E05015247"},"geometry":{"type":"Point","coordinates":[-2.310402,53.453613]}},{"type":"Feature","properties":{"camera_id":1284.0,"location":"Moss Lane, Altrincham","area_name":"Altrincham","area_code":"E05015239"},"geometry":{"type":"Point","coordinates":[-2.347952,53.386442]}},{"type":"Feature","properties":{"camera_id":1285.0,"location":"Central Way, Altrincham","area_name":"Altrincham","area_code":"E05015239"},"geometry":{"type":"Point","coordinates":[-2.350951,53.387302]}},{"type":"Feature","properties":{"camera_id":1286.0,"location":"Stamford Street","area_name":"Old Trafford","area_code":"E05015253"},"geometry":{"type":"Point","coordinates":[-2.260948,53.459203]}},{"type":"Feature","properties":{"camera_id":1287.0,"location":"Greenwood Street","area_name":"Altrincham","area_code":"E05015239"},"geometry":{"type":"Point","coordinates":[-2.352469,53.386573]}},{"type":"Feature","properties":{"camera_id":1288.0,"location":"The Downs","area_name":"Altrincham","area_code":"E05015239"},"geometry":{"type":"Point","coordinates":[-2.352185,53.384678]}},{"type":"Feature","properties":{"camera_id":1289.0,"location":"Lostock Subway","area_name":"Lostock & Barton","area_code":"E05015251"},"geometry":{"type":"Point","coordinates":[-2.337634,53.456447]}},{"type":"Feature","properties":{"camera_id":1290.0,"location":"Old Hall Road","area_name":"Lostock & Barton","area_code":"E05015251"},"geometry":{"type":"Point","coordinates":[-2.332272,53.457697]}},{"type":"Feature","properties":{"camera_id":1291.0,"location":"Mainwood Road/Greystoke Avenue","area_name":"Timperley Central","area_code":"E05015257"},"geometry":{"type":"Point","coordinates":[-2.305495,53.391498]}},{"type":"Feature","properties":{"camera_id":1292.0,"location":"Rippon Road","area_name":"Lostock & Barton","area_code":"E05015251"},"geometry":{"type":"Point","coordinates":[-2.333404,53.453209]}},{"type":"Feature","properties":{"camera_id":1293.0,"location":"Shaws Road, Altrincham Market","area_name":"Altrincham","area_code":"E05015239"},"geometry":{"type":"Point","coordinates":[-2.350947,53.387323]}},{"type":"Feature","properties":{"camera_id":1294.0,"location":"Broomwood Park","area_name":"Timperley Central","area_code":"E05015257"},"geometry":{"type":"Point","coordinates":[-2.306396,53.391847]}},{"type":"Feature","properties":{"camera_id":1295.0,"location":"Mainwood Road","area_name":"Timperley Central","area_code":"E05015257"},"geometry":{"type":"Point","coordinates":[-2.311396,53.392165]}},{"type":"Feature","properties":{"camera_id":1296.0,"location":"Denmark Street/Goose Green (Cinema)","area_name":"Altrincham","area_code":"E05015239"},"geometry":{"type":"Point","coordinates":[-2.349398,53.385035]}},{"type":"Feature","properties":{"camera_id":1297.0,"location":"Stamford New Road/Altrincham Interchange (Taxi Rank)","area_name":"Altrincham","area_code":"E05015239"},"geometry":{"type":"Point","coordinates":[-2.348568,53.387282]}},{"type":"Feature","properties":{"camera_id":1298.0,"location":"Altrincham Retail Park","area_name":"Broadheath","area_code":"E05015242"},"geometry":{"type":"Point","coordinates":[-2.356999,53.399425]}},{"type":"Feature","properties":{"camera_id":1299.0,"location":"Craven Road","area_name":"Broadheath","area_code":"E05015242"},"geometry":{"type":"Point","coordinates":[-2.359343,53.401198]}},{"type":"Feature","properties":{"camera_id":1301.0,"location":"Ashley Road/Brown Street, Hale","area_name":"Hale","area_code":"E05015248"},"geometry":{"type":"Point","coordinates":[-2.348709,53.378689]}},{"type":"Feature","properties":{"camera_id":1302.0,"location":"Ashley Road/Victoria Road, Hale","area_name":"Hale","area_code":"E05015248"},"geometry":{"type":"Point","coordinates":[-2.347088,53.377985]}},{"type":"Feature","properties":{"camera_id":1303.0,"location":"Ashley Road, Hale (Shops)","area_name":"Hale","area_code":"E05015248"},"geometry":{"type":"Point","coordinates":[-2.345115,53.376644]}},{"type":"Feature","properties":{"camera_id":1310.0,"location":"Sibson House (Front Left)","area_name":"Sale Central","area_code":"E05015254"},"geometry":{"type":"Point","coordinates":[-2.323957,53.423529]}},{"type":"Feature","properties":{"camera_id":1311.0,"location":"Sibson House (Front Right)","area_name":"Sale Central","area_code":"E05015254"},"geometry":{"type":"Point","coordinates":[-2.324126,53.423611]}},{"type":"Feature","properties":{"camera_id":2023.0,"location":"Trafford Town Hall (Rooftop)","area_name":"Gorse Hill & Cornbrook","area_code":"E05015247"},"geometry":{"type":"Point","coordinates":[-2.288155,53.458601]}},{"type":"Feature","properties":{"camera_id":11284.0,"location":"Moss Lane Bridge Static","area_name":"Altrincham","area_code":"E05015239"},"geometry":{"type":"Point","coordinates":[-2.347909,53.386422]}},{"type":"Feature","properties":{"camera_id":11689.0,"location":"Moss Lane Park Bmx Track","area_name":"Bucklow-St Martins","area_code":"E05015244"},"geometry":{"type":"Point","coordinates":[-2.420149,53.414109]}},{"type":"Feature","properties":{"camera_id":"SCC-C151","location":"London Road/Boston Street","type":"ITS Traffic Camera","organisation":"Sheffield City Council","source_dataset":"Sheffield City Council Open Data"},"geometry":{"type":"Point","coordinates":[-1.4769055310586492,53.37178508016727]}},{"type":"Feature","properties":{"camera_id":"SCC-C155","location":"London Road/Ward Place","type":"ITS Traffic Camera","organisation":"Sheffield City Council","source_dataset":"Sheffield City Council Open Data"},"geometry":{"type":"Point","coordinates":[-1.4750605849034029,53.36658152926725]}},{"type":"Feature","properties":{"camera_id":"SCC-C158","location":"Abbeydale Road/South View Road","type":"ITS Traffic Camera","organisation":"Sheffield City Council","source_dataset":"Sheffield City Council Open Data"},"geometry":{"type":"Point","coordinates":[-1.4773828921274663,53.36347262504764]}},{"type":"Feature","properties":{"camera_id":"SCC-37","location":"Abbeydale Road / Woodseat Road","type":"ITS Traffic Camera","organisation":"Sheffield City Council","source_dataset":"Sheffield City Council Open Data"},"geometry":{"type":"Point","coordinates":[-1.4862539110992252,53.35290161256439]}},{"type":"Feature","properties":{"camera_id":"SCC-39","location":"Hunters Bar Roundabout","type":"ITS Traffic Camera","organisation":"Sheffield City Council","source_dataset":"Sheffield City Council Open Data"},"geometry":{"type":"Point","coordinates":[-1.5018830638653242,53.36749914390368]}},{"type":"Feature","properties":{"camera_id":"SCC-40","location":"Ecclesall Road / Psalter Lane","type":"ITS Traffic Camera","organisation":"Sheffield City Council","source_dataset":"Sheffield City Council Open Data"},"geometry":{"type":"Point","coordinates":[-1.5079977342708015,53.36042014154394]}},{"type":"Feature","properties":{"camera_id":"SCC-41","location":"Shepcote Lane / Europa Link","type":"ITS Traffic Camera","organisation":"Sheffield City Council","source_dataset":"Sheffield City Council Open Data"},"geometry":{"type":"Point","coordinates":[-1.4118933429669251,53.395284607526364]}},{"type":"Feature","properties":{"camera_id":"SCC-42","location":"Ecclesall Road / Summerfield Street","type":"ITS Traffic Camera","organisation":"Sheffield City Council","source_dataset":"Sheffield City Council Open Data"},"geometry":{"type":"Point","coordinates":[-1.484024355349104,53.37278076623135]}},{"type":"Feature","properties":{"camera_id":"SCC-44","location":"Rutland Road / Pitsmoor Road","type":"ITS Traffic Camera","organisation":"Sheffield City Council","source_dataset":"Sheffield City Council Open Data"},"geometry":{"type":"Point","coordinates":[-1.467010954849768,53.39860079323754]}},{"type":"Feature","properties":{"camera_id":"SCC-45","location":"Ball Road / Holme Lane, Malin Bridge","type":"ITS Traffic Camera","organisation":"Sheffield City Council","source_dataset":"Sheffield City Council Open Data"},"geometry":{"type":"Point","coordinates":[-1.5070162999975314,53.400731756391146]}},{"type":"Feature","properties":{"camera_id":"SCC-46","location":"Burngreave Road / Pitsmoor Road","type":"ITS Traffic Camera","organisation":"Sheffield City Council","source_dataset":"Sheffield City Council Open Data"},"geometry":{"type":"Point","coordinates":[-1.4650508460241045,53.400713721423834]}},{"type":"Feature","properties":{"camera_id":"SCC-47","location":"Barnsley Road / Firth Park Road","type":"ITS Traffic Camera","organisation":"Sheffield City Council","source_dataset":"Sheffield City Council Open Data"},"geometry":{"type":"Point","coordinates":[-1.4521619579786225,53.40727401335261]}},{"type":"Feature","properties":{"camera_id":"SCC-48","location":"Abbeydale Road / Broadfield Road","type":"ITS Traffic Camera","organisation":"Sheffield City Council","source_dataset":"Sheffield City Council Open Data"},"geometry":{"type":"Point","coordinates":[-1.4821668844289677,53.358328079694395]}},{"type":"Feature","properties":{"camera_id":"SCC-49","location":"Prince of Wales Road / Castlebeck Road","type":"ITS Traffic Camera","organisation":"Sheffield City Council","source_dataset":"Sheffield City Council Open Data"},"geometry":{"type":"Point","coordinates":[-1.4177506017956072,53.37290220361763]}},{"type":"Feature","properties":{"camera_id":"SCC-50","location":"Whitham Road / Moor Oaks Road","type":"ITS Traffic Camera","organisation":"Sheffield City Council","source_dataset":"Sheffield City Council Open Data"},"geometry":{"type":"Point","coordinates":[-1.4971023571232362,53.379650165142856]}},{"type":"Feature","properties":{"camera_id":"SCC-51","location":"Penistone Road / Old Penistone Road","type":"ITS Traffic Camera","organisation":"Sheffield City Council","source_dataset":"Sheffield City Council Open Data"},"geometry":{"type":"Point","coordinates":[-1.4887735789383267,53.39672020916803]}},{"type":"Feature","properties":{"camera_id":"SCC-52","location":"Barnsley Road / Norwood Road","type":"ITS Traffic Camera","organisation":"Sheffield City Council","source_dataset":"Sheffield City Council Open Data"},"geometry":{"type":"Point","coordinates":[-1.459622294246161,53.40334457521084]}},{"type":"Feature","properties":{"camera_id":"SCC-53","location":"Ecclesfield Common / Green Lane","type":"ITS Traffic Camera","organisation":"Sheffield City Council","source_dataset":"Sheffield City Council Open Data"},"geometry":{"type":"Point","coordinates":[-1.4578176140476018,53.44157481484628]}},{"type":"Feature","properties":{"camera_id":"SCC-54","location":"Ecclesfield Common / Nether Lane","type":"ITS Traffic Camera","organisation":"Sheffield City Council","source_dataset":"Sheffield City Council Open Data"},"geometry":{"type":"Point","coordinates":[-1.4628051438544547,53.445464523580256]}},{"type":"Feature","properties":{"camera_id":"SCC-55","location":"Sheffield Road / Blackburn Meadows Way","type":"ITS Traffic Camera","organisation":"Sheffield City Council","source_dataset":"Sheffield City Council Open Data"},"geometry":{"type":"Point","coordinates":[-1.3962286956646128,53.41782591068697]}},{"type":"Feature","properties":{"camera_id":"SCC-84","location":"Bridge Street","type":" ","organisation":"Sheffield City Council","source_dataset":"Sheffield City Council Open Data"},"geometry":{"type":"Point","coordinates":[-1.4653122349880843,53.38542353141266]}},{"type":"Feature","properties":{"camera_id":"SCC-1","location":"Sheaf Street / Howard Street","type":"ITS Traffic Camera","organisation":"Sheffield City Council","source_dataset":"Sheffield City Council Open Data"},"geometry":{"type":"Point","coordinates":[-1.464443569751507,53.37767708782339]}},{"type":"Feature","properties":{"camera_id":"SCC-2","location":"Granville Square Roundabout","type":"ITS Traffic Camera","organisation":"Sheffield City Council","source_dataset":"Sheffield City Council Open Data"},"geometry":{"type":"Point","coordinates":[-1.4626889873801914,53.374532981024906]}},{"type":"Feature","properties":{"camera_id":"SCC-3","location":"Bramall Lane Rbt / St Marys / Bramall Lane","type":"ITS Traffic Camera","organisation":"Sheffield City Council","source_dataset":"Sheffield City Council Open Data"},"geometry":{"type":"Point","coordinates":[-1.4731930213361923,53.37285479532791]}},{"type":"Feature","properties":{"camera_id":"SCC-4","location":"Moore Street Rbt / St Marys Gate / Moore Street","type":"ITS Traffic Camera","organisation":"Sheffield City Council","source_dataset":"Sheffield City Council Open Data"},"geometry":{"type":"Point","coordinates":[-1.4788868384630625,53.37397690437872]}},{"type":"Feature","properties":{"camera_id":"SCC-5","location":"Brookhill Rbt / Broad Lane / Upper Hanover Street","type":"ITS Traffic Camera","organisation":"Sheffield City Council","source_dataset":"Sheffield City Council Open Data"},"geometry":{"type":"Point","coordinates":[-1.4842403637435395,53.38204533009273]}},{"type":"Feature","properties":{"camera_id":"SCC-6","location":"West Bar Roundabout / West Bar Green","type":"ITS Traffic Camera","organisation":"Sheffield City Council","source_dataset":"Sheffield City Council Open Data"},"geometry":{"type":"Point","coordinates":[-1.4706859104840055,53.38533643229887]}},{"type":"Feature","properties":{"camera_id":"SCC-7","location":"Nursery Street / Blonk Street / Wicker","type":"ITS Traffic Camera","organisation":"Sheffield City Council","source_dataset":"Sheffield City Council Open Data"},"geometry":{"type":"Point","coordinates":[-1.4640428172559705,53.386000671457836]}},{"type":"Feature","properties":{"camera_id":"SCC-8","location":"Park Square South / Broad Street / Duke Street","type":"ITS Traffic Camera","organisation":"Sheffield City Council","source_dataset":"Sheffield City Council Open Data"},"geometry":{"type":"Point","coordinates":[-1.4598713248602213,53.38272926183602]}},{"type":"Feature","properties":{"camera_id":"SCC-9","location":"Park Square North / Commercial St / Exchange Pl","type":"ITS Traffic Camera","organisation":"Sheffield City Council","source_dataset":"Sheffield City Council Open Data"},"geometry":{"type":"Point","coordinates":[-1.4605466764061068,53.383239541100416]}},{"type":"Feature","properties":{"camera_id":"SCC-10","location":"Penistone Road / Hoyle Street / Shalesmoor","type":"ITS Traffic Camera","organisation":"Sheffield City Council","source_dataset":"Sheffield City Council Open Data"},"geometry":{"type":"Point","coordinates":[-1.4771042275170123,53.388595005150215]}},{"type":"Feature","properties":{"camera_id":"SCC-11","location":"Manor Top / City Road / Prince of Wales Road","type":"ITS Traffic Camera","organisation":"Sheffield City Council","source_dataset":"Sheffield City Council Open Data"},"geometry":{"type":"Point","coordinates":[-1.4289229237930592,53.3608982170467]}},{"type":"Feature","properties":{"camera_id":"SCC-12","location":"Gleadless Town End / White Lane / Norton Avenue","type":"ITS Traffic Camera","organisation":"Sheffield City Council","source_dataset":"Sheffield City Council Open Data"},"geometry":{"type":"Point","coordinates":[-1.4260134305373207,53.34562382622329]}},{"type":"Feature","properties":{"camera_id":"SCC-13","location":"Bernard Road / Parkway / Cutlers Gate","type":"ITS Traffic Camera","organisation":"Sheffield City Council","source_dataset":"Sheffield City Council Open Data"},"geometry":{"type":"Point","coordinates":[-1.4528204645449307,53.3848969921192]}},{"type":"Feature","properties":{"camera_id":"SCC-14","location":"Handsworth Road / Parkway","type":"ITS Traffic Camera","organisation":"Sheffield City Council","source_dataset":"Sheffield City Council Open Data"},"geometry":{"type":"Point","coordinates":[-1.3963082222275613,53.3779207609104]}},{"type":"Feature","properties":{"camera_id":"SCC-15","location":"Owlerton Green / Penistone Road","type":"ITS Traffic Camera","organisation":"Sheffield City Council","source_dataset":"Sheffield City Council Open Data"},"geometry":{"type":"Point","coordinates":[-1.4960945005288213,53.404602825815665]}},{"type":"Feature","properties":{"camera_id":"SCC-16","location":"Middlewood Road / Catchbar Lane","type":"ITS Traffic Camera","organisation":"Sheffield City Council","source_dataset":"Sheffield City Council Open Data"},"geometry":{"type":"Point","coordinates":[-1.5047386468165722,53.411751694026925]}},{"type":"Feature","properties":{"camera_id":"SCC-17","location":"Attercliffe Road / Sutherland Street","type":"ITS Traffic Camera","organisation":"Sheffield City Council","source_dataset":"Sheffield City Council Open Data"},"geometry":{"type":"Point","coordinates":[-1.449255460490039,53.39064857056242]}},{"type":"Feature","properties":{"camera_id":"SCC-18","location":"Savile Street / Sutherland Street","type":"ITS Traffic Camera","organisation":"Sheffield City Council","source_dataset":"Sheffield City Council Open Data"},"geometry":{"type":"Point","coordinates":[-1.4506123048058035,53.39112016638609]}},{"type":"Feature","properties":{"camera_id":"SCC-19","location":"Brightside Lane / Hawke Street Gyratory","type":"ITS Traffic Camera","organisation":"Sheffield City Council","source_dataset":"Sheffield City Council Open Data"},"geometry":{"type":"Point","coordinates":[-1.4282141782467106,53.40499255236491]}},{"type":"Feature","properties":{"camera_id":"SCC-20","location":"Arena Square, Attercliffe Common / Broughton Lane","type":"ITS Traffic Camera","organisation":"Sheffield City Council","source_dataset":"Sheffield City Council Open Data"},"geometry":{"type":"Point","coordinates":[-1.4209228150077655,53.40239315023228]}},{"type":"Feature","properties":{"camera_id":"SCC-21","location":"Meadowhall Way / Orange Car Parks 3 & 4","type":"ITS Traffic Camera","organisation":"Sheffield City Council","source_dataset":"Sheffield City Council Open Data"},"geometry":{"type":"Point","coordinates":[-1.417594670401517,53.411047946599204]}},{"type":"Feature","properties":{"camera_id":"SCC-22","location":"Meadowhall Way / Leisure Centre","type":"ITS Traffic Camera","organisation":"Sheffield City Council","source_dataset":"Sheffield City Council Open Data"},"geometry":{"type":"Point","coordinates":[-1.4108527728836306,53.410625234163376]}},{"type":"Feature","properties":{"camera_id":"SCC-23","location":"Sheffield Road Rbt / Sheffield Road / Vulcan Road","type":"ITS Traffic Camera","organisation":"Sheffield City Council","source_dataset":"Sheffield City Council Open Data"},"geometry":{"type":"Point","coordinates":[-1.4061018890958794,53.411022513753004]}},{"type":"Feature","properties":{"camera_id":"SCC-24","location":"Meadowhall Way / Yellow Lower Car Park","type":"ITS Traffic Camera","organisation":"Sheffield City Council","source_dataset":"Sheffield City Council Open Data"},"geometry":{"type":"Point","coordinates":[-1.4056460569060671,53.414038889006555]}},{"type":"Feature","properties":{"camera_id":"SCC-25","location":"Meadowhall Road / Alsing Road","type":"ITS Traffic Camera","organisation":"Sheffield City Council","source_dataset":"Sheffield City Council Open Data"},"geometry":{"type":"Point","coordinates":[-1.4112058259519036,53.41708582580292]}},{"type":"Feature","properties":{"camera_id":"SCC-29","location":"Prince of Wales Road / Handsworth Road, Darnall","type":"ITS Traffic Camera","organisation":"Sheffield City Council","source_dataset":"Sheffield City Council Open Data"},"geometry":{"type":"Point","coordinates":[-1.4096619547250562,53.385307503946485]}},{"type":"Feature","properties":{"camera_id":"SCC-30","location":"Meadowhead Roundabout","type":"ITS Traffic Camera","organisation":"Sheffield City Council","source_dataset":"Sheffield City Council Open Data"},"geometry":{"type":"Point","coordinates":[-1.4734903551586291,53.32669986682839]}},{"type":"Feature","properties":{"camera_id":"SCC-32","location":"Western Bank / Clarkson Street","type":"ITS Traffic Camera","organisation":"Sheffield City Council","source_dataset":"Sheffield City Council Open Data"},"geometry":{"type":"Point","coordinates":[-1.4894614534626576,53.38085381728375]}},{"type":"Feature","properties":{"camera_id":"SCC-33","location":"Glossop Road / Clarkhouse Road","type":"ITS Traffic Camera","organisation":"Sheffield City Council","source_dataset":"Sheffield City Council Open Data"},"geometry":{"type":"Point","coordinates":[-1.4917800098266107,53.37759469878336]}},{"type":"Feature","properties":{"camera_id":"SCC-34","location":"Manchester Road / Fulwood Road","type":"ITS Traffic Camera","organisation":"Sheffield City Council","source_dataset":"Sheffield City Council Open Data"},"geometry":{"type":"Point","coordinates":[-1.5040439061859963,53.3765658460405]}},{"type":"Feature","properties":{"camera_id":"SCC-56","location":"Meadowhall Way / Blackburn Meadows Way","type":"ITS Traffic Camera","organisation":"Sheffield City Council","source_dataset":"Sheffield City Council Open Data"},"geometry":{"type":"Point","coordinates":[-1.4065890066507354,53.41602437420896]}},{"type":"Feature","properties":{"camera_id":"SCC-58","location":"Ecclesall Road / Berkeley Precinct","type":"ITS Traffic Camera","organisation":"Sheffield City Council","source_dataset":"Sheffield City Council Open Data"},"geometry":{"type":"Point","coordinates":[-1.4944982303762793,53.369358115574805]}},{"type":"Feature","properties":{"camera_id":"SCC-60","location":"Queens Road / London Road","type":"ITS Traffic Camera","organisation":"Sheffield City Council","source_dataset":"Sheffield City Council Open Data"},"geometry":{"type":"Point","coordinates":[-1.4722387625324356,53.36375798534919]}},{"type":"Feature","properties":{"camera_id":"SCC-61","location":"Penistone Road / Leppings Lane","type":"ITS Traffic Camera","organisation":"Sheffield City Council","source_dataset":"Sheffield City Council Open Data"},"geometry":{"type":"Point","coordinates":[-1.5009206851948347,53.41515614570703]}},{"type":"Feature","properties":{"camera_id":"SCC-62","location":"Penistone Road / Claywheels Lane","type":"ITS Traffic Camera","organisation":"Sheffield City Council","source_dataset":"Sheffield City Council Open Data"},"geometry":{"type":"Point","coordinates":[-1.5011855745984255,53.416268596781265]}},{"type":"Feature","properties":{"camera_id":"SCC-63","location":"Morrisons at Meadowhead","type":"ITS Traffic Camera","organisation":"Sheffield City Council","source_dataset":"Sheffield City Council Open Data"},"geometry":{"type":"Point","coordinates":[-1.4808763978088204,53.335102481173934]}},{"type":"Feature","properties":{"camera_id":"SCC-64","location":"Halifax Road / Kilner Way","type":"ITS Traffic Camera","organisation":"Sheffield City Council","source_dataset":"Sheffield City Council Open Data"},"geometry":{"type":"Point","coordinates":[-1.4972812445572377,53.419383416670314]}},{"type":"Feature","properties":{"camera_id":"SCC-67","location":"Mansfield Road / Woodhouse Road","type":"ITS Traffic Camera","organisation":"Sheffield City Council","source_dataset":"Sheffield City Council Open Data"},"geometry":{"type":"Point","coordinates":[-1.4215898331677648,53.35898474166463]}},{"type":"Feature","properties":{"camera_id":"SCC-68","location":"Europa Link / AMRC","type":"ITS Traffic Camera","organisation":"Sheffield City Council","source_dataset":"Sheffield City Council Open Data"},"geometry":{"type":"Point","coordinates":[-1.3777825648783828,53.392336140354075]}},{"type":"Feature","properties":{"camera_id":"SCC-26","location":"Exchange Gateway","type":" ","organisation":"Sheffield City Council","source_dataset":"Sheffield City Council Open Data"},"geometry":{"type":"Point","coordinates":[-1.4619909707824068,53.38411426481281]}},{"type":"Feature","properties":{"camera_id":"SCC-27","location":"Exchange Gateway","type":" ","organisation":"Sheffield City Council","source_dataset":"Sheffield City Council Open Data"},"geometry":{"type":"Point","coordinates":[-1.4617984771791426,53.383879693101356]}},{"type":"Feature","properties":{"camera_id":"SCC-28","location":"Exchange Gateway","type":" ","organisation":"Sheffield City Council","source_dataset":"Sheffield City Council Open Data"},"geometry":{"type":"Point","coordinates":[-1.461881564291826,53.38325086141106]}},{"type":"Feature","properties":{"camera_id":"SCC-35","location":"Fitzalan Square/Waingate","type":" ","organisation":"Sheffield City Council","source_dataset":"Sheffield City Council Open Data"},"geometry":{"type":"Point","coordinates":[-1.4644374474689321,53.38324436310637]}},{"type":"Feature","properties":{"camera_id":"SCC-36","location":"Castle Square (Bankers Draft)","type":" ","organisation":"Sheffield City Council","source_dataset":"Sheffield City Council Open Data"},"geometry":{"type":"Point","coordinates":[-1.4660598079028702,53.38335049622365]}},{"type":"Feature","properties":{"camera_id":"SCC-38","location":"High Street/York Street","type":" ","organisation":"Sheffield City Council","source_dataset":"Sheffield City Council Open Data"},"geometry":{"type":"Point","coordinates":[-1.468156593145683,53.38278457025298]}},{"type":"Feature","properties":{"camera_id":"SCC-43","location":"Rockingham Street","type":" ","organisation":"Sheffield City Council","source_dataset":"Sheffield City Council Open Data"},"geometry":{"type":"Point","coordinates":[-1.47598360357298,53.380796681273004]}},{"type":"Feature","properties":{"camera_id":"SCC-57","location":"Glossop Road/Gell Street","type":" ","organisation":"Sheffield City Council","source_dataset":"Sheffield City Council Open Data"},"geometry":{"type":"Point","coordinates":[-1.4827867663010705,53.38012518662366]}},{"type":"Feature","properties":{"camera_id":"SCC-65","location":"Woodbourn Rd Tram stop","type":" ","organisation":"Sheffield City Council","source_dataset":"Sheffield City Council Open Data"},"geometry":{"type":"Point","coordinates":[-1.4348245495410046,53.388617992776716]}},{"type":"Feature","properties":{"camera_id":"SCC-66","location":"Attercliffe Tram stop","type":" ","organisation":"Sheffield City Council","source_dataset":"Sheffield City Council Open Data"},"geometry":{"type":"Point","coordinates":[-1.4295407160022044,53.392466974998]}},{"type":"Feature","properties":{"camera_id":"SCC-69","location":"Carbrook Tram stop","type":" ","organisation":"Sheffield City Council","source_dataset":"Sheffield City Council Open Data"},"geometry":{"type":"Point","coordinates":[-1.410847242376538,53.405715487525875]}},{"type":"Feature","properties":{"camera_id":"SCC-70","location":"Tinsley Tram stop","type":" ","organisation":"Sheffield City Council","source_dataset":"Sheffield City Council Open Data"},"geometry":{"type":"Point","coordinates":[-1.4051306187872559,53.41440630117356]}},{"type":"Feature","properties":{"camera_id":"SCC-C152","location":"London Road/Hill Street","type":"ITS Traffic Camera","organisation":"Sheffield City Council","source_dataset":"Sheffield City Council Open Data"},"geometry":{"type":"Point","coordinates":[-1.477625513568852,53.3706736296791]}},{"type":"Feature","properties":{"camera_id":"SCC-C153","location":"London Road/Alderson Road","type":"ITS Traffic Camera","organisation":"Sheffield City Council","source_dataset":"Sheffield City Council Open Data"},"geometry":{"type":"Point","coordinates":[-1.4762532559404293,53.368591238401144]}},{"type":"Feature","properties":{"camera_id":"SCC-C154","location":"London Road/Woodhead Road","type":"ITS Traffic Camera","organisation":"Sheffield City Council","source_dataset":"Sheffield City Council Open Data"},"geometry":{"type":"Point","coordinates":[-1.4758292261074215,53.3676275897576]}},{"type":"Feature","properties":{"camera_id":"SCC-85","location":"Castlegate/Waingate","type":" ","organisation":"Sheffield City Council","source_dataset":"Sheffield City Council Open Data"},"geometry":{"type":"Point","coordinates":[-1.464788069308183,53.385259390462224]}},{"type":"Feature","properties":{"camera_id":"SCC-87","location":"Wicker/Stanley Street","type":" ","organisation":"Sheffield City Council","source_dataset":"Sheffield City Council Open Data"},"geometry":{"type":"Point","coordinates":[-1.4626773241675015,53.38692181220563]}},{"type":"Feature","properties":{"camera_id":"SCC-88","location":"Wicker/Andrew Street","type":" ","organisation":"Sheffield City Council","source_dataset":"Sheffield City Council Open Data"},"geometry":{"type":"Point","coordinates":[-1.462083508201298,53.38751239363311]}},{"type":"Feature","properties":{"camera_id":"SCC-89","location":"Spital Hill/Saville Street","type":" ","organisation":"Sheffield City Council","source_dataset":"Sheffield City Council Open Data"},"geometry":{"type":"Point","coordinates":[-1.4608352323054992,53.38872922983259]}},{"type":"Feature","properties":{"camera_id":"SCC-90","location":"Spital Hill/Carlisle Street","type":" ","organisation":"Sheffield City Council","source_dataset":"Sheffield City Council Open Data"},"geometry":{"type":"Point","coordinates":[-1.4594363011319582,53.38996335094158]}},{"type":"Feature","properties":{"camera_id":"SCC-91","location":"Ellesmere Road/Andover Street/Earsham Street","type":" ","organisation":"Sheffield City Council","source_dataset":"Sheffield City Council Open Data"},"geometry":{"type":"Point","coordinates":[-1.4580670031729033,53.39241106036227]}},{"type":"Feature","properties":{"camera_id":"SCC-92","location":"Burngreave Road/ Brunswick Road/Gower Street","type":" ","organisation":"Sheffield City Council","source_dataset":"Sheffield City Council Open Data"},"geometry":{"type":"Point","coordinates":[-1.458584506270417,53.39310552852149]}},{"type":"Feature","properties":{"camera_id":"SCC-93","location":"Ellesmere Road/Gower Street","type":" ","organisation":"Sheffield City Council","source_dataset":"Sheffield City Council Open Data"},"geometry":{"type":"Point","coordinates":[-1.4572160483563064,53.39310831740985]}},{"type":"Feature","properties":{"camera_id":"SCC-94","location":"Kirk Street/Gower Street","type":" ","organisation":"Sheffield City Council","source_dataset":"Sheffield City Council Open Data"},"geometry":{"type":"Point","coordinates":[-1.4561033294687082,53.39310326470777]}},{"type":"Feature","properties":{"camera_id":"SCC-97","location":"Langsett Road","type":" ","organisation":"Sheffield City Council","source_dataset":"Sheffield City Council Open Data"},"geometry":{"type":"Point","coordinates":[-1.49820520899579,53.40113437979191]}},{"type":"Feature","properties":{"camera_id":"SCC-98","location":"Middwood Road","type":" ","organisation":"Sheffield City Council","source_dataset":"Sheffield City Council Open Data"},"geometry":{"type":"Point","coordinates":[-1.5009702897824435,53.40262906933073]}},{"type":"Feature","properties":{"camera_id":"SCC-101","location":"Staniforth Rd / Irving Street","type":" ","organisation":"Sheffield City Council","source_dataset":"Sheffield City Council Open Data"},"geometry":{"type":"Point","coordinates":[-1.4119871095348628,53.386278420299774]}},{"type":"Feature","properties":{"camera_id":"SCC-102","location":"Staniforth Road / Main Road","type":" ","organisation":"Sheffield City Council","source_dataset":"Sheffield City Council Open Data"},"geometry":{"type":"Point","coordinates":[-1.411187460275926,53.3864812162315]}},{"type":"Feature","properties":{"camera_id":"SCC-103","location":"Derek Dooley Way","type":" ","organisation":"Sheffield City Council","source_dataset":"Sheffield City Council Open Data"},"geometry":{"type":"Point","coordinates":[-1.4645909960303864,53.388988794975816]}},{"type":"Feature","properties":{"camera_id":"SCC-104","location":"Corporation Street/Tesco","type":" ","organisation":"Sheffield City Council","source_dataset":"Sheffield City Council Open Data"},"geometry":{"type":"Point","coordinates":[-1.4680155796819043,53.389282722931405]}},{"type":"Feature","properties":{"camera_id":"SCC-105","location":"Shalesmoor/Gibralter Street","type":" ","organisation":"Sheffield City Council","source_dataset":"Sheffield City Council Open Data"},"geometry":{"type":"Point","coordinates":[-1.4744302681631576,53.387315616025084]}},{"type":"Feature","properties":{"camera_id":"SCC-107","location":"Granville Square","type":" ","organisation":"Sheffield City Council","source_dataset":"Sheffield City Council Open Data"},"geometry":{"type":"Point","coordinates":[-1.4626974473312655,53.374553513188786]}},{"type":"Feature","properties":{"camera_id":"SCC-140","location":"Eyre Street","type":" ","organisation":"Sheffield City Council","source_dataset":"Sheffield City Council Open Data"},"geometry":{"type":"Point","coordinates":[-1.470212097597453,53.37704994387405]}},{"type":"Feature","properties":{"camera_id":"SCC-141","location":"Eyre Street","type":" ","organisation":"Sheffield City Council","source_dataset":"Sheffield City Council Open Data"},"geometry":{"type":"Point","coordinates":[-1.4711059295507338,53.37648761518414]}},{"type":"Feature","properties":{"camera_id":"SCC-142","location":"Eyre Street","type":" ","organisation":"Sheffield City Council","source_dataset":"Sheffield City Council Open Data"},"geometry":{"type":"Point","coordinates":[-1.4718105484727497,53.37542107891551]}},{"type":"Feature","properties":{"camera_id":"SCC-143","location":"Eyre Street","type":" ","organisation":"Sheffield City Council","source_dataset":"Sheffield City Council Open Data"},"geometry":{"type":"Point","coordinates":[-1.4731435270768252,53.37459101214623]}},{"type":"Feature","properties":{"camera_id":"SCC-144","location":"Eyre Street","type":" ","organisation":"Sheffield City Council","source_dataset":"Sheffield City Council Open Data"},"geometry":{"type":"Point","coordinates":[-1.4730545951689231,53.37326928307112]}},{"type":"Feature","properties":{"camera_id":"SCC-145","location":"Sheaf Square - Sheffield Station","type":" ","organisation":"Sheffield City Council","source_dataset":"Sheffield City Council Open Data"},"geometry":{"type":"Point","coordinates":[-1.4631110326287047,53.378726109035206]}},{"type":"Feature","properties":{"camera_id":"SCC-146","location":"Sheaf Square - Taxi Rank","type":" ","organisation":"Sheffield City Council","source_dataset":"Sheffield City Council Open Data"},"geometry":{"type":"Point","coordinates":[-1.4634987746737693,53.377775052263786]}},{"type":"Feature","properties":{"camera_id":"SCC-147","location":"Howard Street - The Howard","type":" ","organisation":"Sheffield City Council","source_dataset":"Sheffield City Council Open Data"},"geometry":{"type":"Point","coordinates":[-1.4648944381241125,53.37796108115764]}},{"type":"Feature","properties":{"camera_id":"SCC-148","location":"Howard Lane - The Globe","type":" ","organisation":"Sheffield City Council","source_dataset":"Sheffield City Council Open Data"},"geometry":{"type":"Point","coordinates":[-1.4663274712988998,53.37876747799004]}},{"type":"Feature","properties":{"camera_id":"SCC-213","location":"Charter Row","type":" ","organisation":"Sheffield City Council","source_dataset":"Sheffield City Council Open Data"},"geometry":{"type":"Point","coordinates":[-1.4741173130284304,53.37730088820099]}},{"type":"Feature","properties":{"camera_id":"SCC-214","location":"Charter Row","type":" ","organisation":"Sheffield City Council","source_dataset":"Sheffield City Council Open Data"},"geometry":{"type":"Point","coordinates":[-1.4749196976223056,53.376837004007314]}},{"type":"Feature","properties":{"camera_id":"SCC-215","location":"Charter Row","type":" ","organisation":"Sheffield City Council","source_dataset":"Sheffield City Council Open Data"},"geometry":{"type":"Point","coordinates":[-1.475881501644485,53.37562775418495]}},{"type":"Feature","properties":{"camera_id":"SCC-216","location":"Charter Row","type":" ","organisation":"Sheffield City Council","source_dataset":"Sheffield City Council Open Data"},"geometry":{"type":"Point","coordinates":[-1.477680011885512,53.374826642928554]}},{"type":"Feature","properties":{"camera_id":"SCC-221","location":"Furnival Street (Debenhams)","type":" ","organisation":"Sheffield City Council","source_dataset":"Sheffield City Council Open Data"},"geometry":{"type":"Point","coordinates":[-1.471989932210767,53.3779386965121]}},{"type":"Feature","properties":{"camera_id":"SCC-222","location":"The Moor","type":" ","organisation":"Sheffield City Council","source_dataset":"Sheffield City Council Open Data"},"geometry":{"type":"Point","coordinates":[-1.4721735235910893,53.37767883593827]}},{"type":"Feature","properties":{"camera_id":"SCC-225","location":"The Moor","type":" ","organisation":"Sheffield City Council","source_dataset":"Sheffield City Council Open Data"},"geometry":{"type":"Point","coordinates":[-1.473939577035328,53.375861920408234]}},{"type":"Feature","properties":{"camera_id":"SCC-227","location":"The Moor","type":" ","organisation":"Sheffield City Council","source_dataset":"Sheffield City Council Open Data"},"geometry":{"type":"Point","coordinates":[-1.4718727860596779,53.37768649666773]}},{"type":"Feature","properties":{"camera_id":"SCC-228","location":"The Moor","type":" ","organisation":"Sheffield City Council","source_dataset":"Sheffield City Council Open Data"},"geometry":{"type":"Point","coordinates":[-1.472573197765614,53.37696150667713]}},{"type":"Feature","properties":{"camera_id":"SCC-229","location":"The Moor","type":" ","organisation":"Sheffield City Council","source_dataset":"Sheffield City Council Open Data"},"geometry":{"type":"Point","coordinates":[-1.4733153592331671,53.37650635625414]}},{"type":"Feature","properties":{"camera_id":"SCC-230","location":"The Moor","type":" ","organisation":"Sheffield City Council","source_dataset":"Sheffield City Council Open Data"},"geometry":{"type":"Point","coordinates":[-1.4735322021202764,53.37598596875283]}},{"type":"Feature","properties":{"camera_id":"SCC-72","location":"Fitzalan Square","type":" ","organisation":"Sheffield City Council","source_dataset":"Sheffield City Council Open Data"},"geometry":{"type":"Point","coordinates":[-1.4648819599322886,53.38256321646587]}},{"type":"Feature","properties":{"camera_id":"SCC-149","location":"Steel Steps/South Street","type":" ","organisation":"Sheffield City Council","source_dataset":"Sheffield City Council Open Data"},"geometry":{"type":"Point","coordinates":[-1.4597678321595626,53.37800993145376]}},{"type":"Feature","properties":{"camera_id":"SCC-150","location":"St Paul Square","type":" ","organisation":"Sheffield City Council","source_dataset":"Sheffield City Council Open Data"},"geometry":{"type":"Point","coordinates":[-1.4673119849297611,53.38058757786882]}},{"type":"Feature","properties":{"camera_id":"SCC-151","location":"St Pauls/Smoke/Cosmos","type":" ","organisation":"Sheffield City Council","source_dataset":"Sheffield City Council Open Data"},"geometry":{"type":"Point","coordinates":[-1.4673119849297611,53.38058757786882]}},{"type":"Feature","properties":{"camera_id":"SCC-152","location":"St Pauls Square","type":" ","organisation":"Sheffield City Council","source_dataset":"Sheffield City Council Open Data"},"geometry":{"type":"Point","coordinates":[-1.4673119849297611,53.38058757786882]}},{"type":"Feature","properties":{"camera_id":"SCC-153","location":"St Pauls/Lambert Smith","type":" ","organisation":"Sheffield City Council","source_dataset":"Sheffield City Council Open Data"},"geometry":{"type":"Point","coordinates":[-1.4673119849297611,53.38058757786882]}},{"type":"Feature","properties":{"camera_id":"SCC-210","location":"Pound Park","type":" ","organisation":"Sheffield City Council","source_dataset":"Sheffield City Council Open Data"},"geometry":{"type":"Point","coordinates":[-1.474066162623223,53.379017497284984]}},{"type":"Feature","properties":{"camera_id":"SCC-212","location":"Pound Park","type":" ","organisation":"Sheffield City Council","source_dataset":"Sheffield City Council Open Data"},"geometry":{"type":"Point","coordinates":[-1.474066162623223,53.379017497284984]}},{"type":"Feature","properties":{"camera_id":"SCC-C156","location":"Abbeydale Road/Fieldhead Road","type":"ITS Traffic Camera","organisation":"Sheffield City Council","source_dataset":"Sheffield City Council Open Data"},"geometry":{"type":"Point","coordinates":[-1.4749023506475467,53.36478309639893]}},{"type":"Feature","properties":{"camera_id":"SCC-C157","location":"Abbeydale Road/Wolseley Road","type":"ITS Traffic Camera","organisation":"Sheffield City Council","source_dataset":"Sheffield City Council Open Data"},"geometry":{"type":"Point","coordinates":[-1.4764010093932585,53.36389079851342]}},{"type":"Feature","properties":{"camera_id":"SCC-C159","location":"Sharrow Lane/Tesco","type":"ITS Traffic Camera","organisation":"Sheffield City Council","source_dataset":"Sheffield City Council Open Data"},"geometry":{"type":"Point","coordinates":[-1.4796008562655565,53.367671029371486]}},{"type":"Feature","properties":{"camera_id":"SCC-C160","location":"Farrar Road/Herschell Road","type":"ITS Traffic Camera","organisation":"Sheffield City Council","source_dataset":"Sheffield City Council Open Data"},"geometry":{"type":"Point","coordinates":[-1.4768601147805127,53.364441118180174]}},{"type":"Feature","properties":{"camera_id":"SCC-C161","location":"Sharrow Lane/Sharrow Street","type":"ITS Traffic Camera","organisation":"Sheffield City Council","source_dataset":"Sheffield City Council Open Data"},"geometry":{"type":"Point","coordinates":[-1.4770338605570565,53.36743511287868]}},{"type":"Feature","properties":{"camera_id":"SCC-C162","location":"Sitwell Road/Vincent Road","type":"ITS Traffic Camera","organisation":"Sheffield City Council","source_dataset":"Sheffield City Council Open Data"},"geometry":{"type":"Point","coordinates":[-1.4781177236534768,53.366055589312694]}},{"type":"Feature","properties":{"camera_id":"SCC-C163","location":"Mount Pleasant Road/Sitwell Road","type":"ITS Traffic Camera","organisation":"Sheffield City Council","source_dataset":"Sheffield City Council Open Data"},"geometry":{"type":"Point","coordinates":[-1.4761938529978178,53.36730559441108]}},{"type":"Feature","properties":{"camera_id":"SCC-C164","location":"Cricket Nets/Mount Pleasant Park","type":"ITS Traffic Camera","organisation":"Sheffield City Council","source_dataset":"Sheffield City Council Open Data"},"geometry":{"type":"Point","coordinates":[-1.4756202129004041,53.36506489595079]}},{"type":"Feature","properties":{"camera_id":"SCC-C165","location":"Basketball Courts/Mount Pleasant Park","type":"ITS Traffic Camera","organisation":"Sheffield City Council","source_dataset":"Sheffield City Council Open Data"},"geometry":{"type":"Point","coordinates":[-1.4765108088326273,53.365967667214115]}},{"type":"Feature","properties":{"camera_id":"SCC-C166","location":"Sharrow Lane/Washington Road","type":"ITS Traffic Camera","organisation":"Sheffield City Council","source_dataset":"Sheffield City Council Open Data"},"geometry":{"type":"Point","coordinates":[-1.4806709896278318,53.36741500946063]}},{"type":"Feature","properties":{"camera_id":"SCC-C167","location":"Boston Street/Cemetery Road","type":"ITS Traffic Camera","organisation":"Sheffield City Council","source_dataset":"Sheffield City Council Open Data"},"geometry":{"type":"Point","coordinates":[-1.478734822032759,53.372143627554806]}},{"type":"Feature","properties":{"camera_id":"SCC-C168","location":"Cemetery Road/Summerfield Street ","type":"ITS Traffic Camera","organisation":"Sheffield City Council","source_dataset":"Sheffield City Council Open Data"},"geometry":{"type":"Point","coordinates":[-1.4823930179848361,53.37041571198325]}},{"type":"Feature","properties":{"camera_id":"SCC-C170","location":"Walton Road/Khartoum Road","type":" ","organisation":"Sheffield City Council","source_dataset":"Sheffield City Council Open Data"},"geometry":{"type":"Point","coordinates":[-1.4956562962050677,53.369798238380724]}},{"type":"Feature","properties":{"camera_id":"SCC-C171","location":"Ecclesall Road/Berkeley Precinct","type":" ","organisation":"Sheffield City Council","source_dataset":"Sheffield City Council Open Data"},"geometry":{"type":"Point","coordinates":[-1.493961263810768,53.369521416080715]}},{"type":"Feature","properties":{"camera_id":"SCC-C172","location":"Ecclesall Road/Southgrove Road","type":" ","organisation":"Sheffield City Council","source_dataset":"Sheffield City Council Open Data"},"geometry":{"type":"Point","coordinates":[-1.492585900192284,53.37017176228896]}},{"type":"Feature","properties":{"camera_id":"SCC-C173","location":"Stalker Lees Road/Rosedale Road","type":" ","organisation":"Sheffield City Council","source_dataset":"Sheffield City Council Open Data"},"geometry":{"type":"Point","coordinates":[-1.4919195358760198,53.36933298397817]}},{"type":"Feature","properties":{"camera_id":"SCC-C174","location":"Ecclesall Road/Broomgrove Road","type":" ","organisation":"Sheffield City Council","source_dataset":"Sheffield City Council Open Data"},"geometry":{"type":"Point","coordinates":[-1.4913654833400702,53.37042724926788]}},{"type":"Feature","properties":{"camera_id":"SCC-C175","location":"Stalker Lees Road/Stalker Walk","type":" ","organisation":"Sheffield City Council","source_dataset":"Sheffield City Council Open Data"},"geometry":{"type":"Point","coordinates":[-1.4896287987409067,53.36986255002529]}},{"type":"Feature","properties":{"camera_id":"SCC-C176","location":"Ecclesall Road/ Collegiate Crescent","type":" ","organisation":"Sheffield City Council","source_dataset":"Sheffield City Council Open Data"},"geometry":{"type":"Point","coordinates":[-1.489642454974431,53.37123787859407]}},{"type":"Feature","properties":{"camera_id":"SCC-C177","location":"Pomona Street","type":" ","organisation":"Sheffield City Council","source_dataset":"Sheffield City Council Open Data"},"geometry":{"type":"Point","coordinates":[-1.4881574869071337,53.37098883644926]}},{"type":"Feature","properties":{"camera_id":"SCC-C178","location":"Ecclesall Road/Nursery Tavern","type":" ","organisation":"Sheffield City Council","source_dataset":"Sheffield City Council Open Data"},"geometry":{"type":"Point","coordinates":[-1.4879225875294777,53.371778835732236]}},{"type":"Feature","properties":{"camera_id":"SCC-C179","location":"William Street/Exeter Way","type":" ","organisation":"Sheffield City Council","source_dataset":"Sheffield City Council Open Data"},"geometry":{"type":"Point","coordinates":[-1.4837049899440118,53.37503258269887]}},{"type":"Feature","properties":{"camera_id":"SCC-C180","location":"Broomhall/Hanover Street","type":" ","organisation":"Sheffield City Council","source_dataset":"Sheffield City Council Open Data"},"geometry":{"type":"Point","coordinates":[-1.4835613732791186,53.37572409040559]}},{"type":"Feature","properties":{"camera_id":"SCC-C181","location":"South Lane/Hereford Street","type":" ","organisation":"Sheffield City Council","source_dataset":"Sheffield City Council Open Data"},"geometry":{"type":"Point","coordinates":[-1.474427941192255,53.374039365912466]}},{"type":"Feature","properties":{"camera_id":"SCC-C182\r\n","location":"The Moor/Social Rehab","type":" ","organisation":"Sheffield City Council","source_dataset":"Sheffield City Council Open Data"},"geometry":{"type":"Point","coordinates":[-1.4749616283875204,53.37464395258345]}},{"type":"Feature","properties":{"camera_id":"SCC-C169","location":"Hunters Bar/Natwest","type":" ","organisation":"Sheffield City Council","source_dataset":"Sheffield City Council Open Data"},"geometry":{"type":"Point","coordinates":[-1.5018447635030567,53.36752307403887]}},{"type":"Feature","properties":{"camera_id":"NLC-236","location":"Scawby Road/Mill Lane","detailed_location":"Scawby Road junction with Mill Lane","area":"Brigg","organisation":"North Lincolnshire Council","owner":"Safer Neighbourhoods","source_dataset":"North Lincolnshire Council official CCTV WFS"},"geometry":{"type":"Point","coordinates":[-0.498725,53.55078]}},{"type":"Feature","properties":{"camera_id":"NLC-237","location":"SN Berkeley Park","detailed_location":"Berkeley Park","area":"Scunthorpe","organisation":"North Lincolnshire Council","owner":"Safer Neighbourhoods","source_dataset":"North Lincolnshire Council official CCTV WFS"},"geometry":{"type":"Point","coordinates":[-0.679465,53.594161]}},{"type":"Feature","properties":{"camera_id":"NLC-238","location":"SN Everest Road","detailed_location":"Everest Road Playing Fields","area":"Scunthorpe","organisation":"North Lincolnshire Council","owner":"Safer Neighbourhoods","source_dataset":"North Lincolnshire Council official CCTV WFS"},"geometry":{"type":"Point","coordinates":[-0.638699,53.563771]}},{"type":"Feature","properties":{"camera_id":"NLC-239","location":"SN Southfield Road","detailed_location":"Southfield Road","area":"Scunthorpe","organisation":"North Lincolnshire Council","owner":"Safer Neighbourhoods","source_dataset":"North Lincolnshire Council official CCTV WFS"},"geometry":{"type":"Point","coordinates":[-0.637757,53.563796]}},{"type":"Feature","properties":{"camera_id":"NLC-240","location":"SN Swinburne Road","detailed_location":"Lichfield Avenue/Swinburne Road","area":"Scunthorpe","organisation":"North Lincolnshire Council","owner":"Safer Neighbourhoods","source_dataset":"North Lincolnshire Council official CCTV WFS"},"geometry":{"type":"Point","coordinates":[-0.677938,53.571058]}},{"type":"Feature","properties":{"camera_id":"NLC-241","location":"SN Percival Street","detailed_location":"Percival Street","area":"Scunthorpe","organisation":"North Lincolnshire Council","owner":"Safer Neighbourhoods","source_dataset":"North Lincolnshire Council official CCTV WFS"},"geometry":{"type":"Point","coordinates":[-0.654522,53.593162]}},{"type":"Feature","properties":{"camera_id":"NLC-242","location":"SN Gloucester Avenue","detailed_location":"Gloucester Avenue/Beechway","area":"Scunthorpe","organisation":"North Lincolnshire Council","owner":"Safer Neighbourhoods","source_dataset":"North Lincolnshire Council official CCTV WFS"},"geometry":{"type":"Point","coordinates":[-0.647244,53.572233]}},{"type":"Feature","properties":{"camera_id":"NLC-243","location":"SN Theodore Road","detailed_location":"Theodore Road","area":"Scunthorpe","organisation":"North Lincolnshire Council","owner":"Safer Neighbourhoods","source_dataset":"North Lincolnshire Council official CCTV WFS"},"geometry":{"type":"Point","coordinates":[-0.663109,53.596205]}},{"type":"Feature","properties":{"camera_id":"NLC-244","location":"SN Parkwood Park","detailed_location":"Parkwood Park, near Oasis Academy Parkwood","area":"Scunthorpe","organisation":"North Lincolnshire Council","owner":"Safer Neighbourhoods","source_dataset":"North Lincolnshire Council official CCTV WFS"},"geometry":{"type":"Point","coordinates":[-0.681472,53.577498]}},{"type":"Feature","properties":{"camera_id":"NLC-262","location":"SN Berkeley Street","detailed_location":"Berkeley Street/Burke Street","area":"Scunthorpe","organisation":"North Lincolnshire Council","owner":"Safer Neighbourhoods","source_dataset":"North Lincolnshire Council official CCTV WFS"},"geometry":{"type":"Point","coordinates":[-0.653547,53.593846]}},{"type":"Feature","properties":{"camera_id":"NLC-269","location":"SN Haxey Bridge","detailed_location":"Haxey Bridge","area":"Haxey","organisation":"North Lincolnshire Council","owner":"Safer Neighbourhoods","source_dataset":"North Lincolnshire Council official CCTV WFS"},"geometry":{"type":"Point","coordinates":[-0.836896,53.491097]}}]}
